{"type": "FeatureCollection", "features": [ {"type": "Feature", "properties": {"norad_id": 66598, "name": "STARLINK-35981", "group": "last-30-days", "lat": -12.031468615131535, "lon": 174.63839372169335, "alt_km": 416.297120206018, "timestamp": "2025-12-13T13:34:33.864484+00:00", "meta": {"OBJECT_NAME": "STARLINK-35981", "OBJECT_ID": "2025-270L", "EPOCH": "2025-12-12T20:00:01.999872", "MEAN_MOTION": 15.50625861, "ECCENTRICITY": 0.0001406, "INCLINATION": 42.9995, "RA_OF_ASC_NODE": 192.1445, "ARG_OF_PERICENTER": 266.1415, "MEAN_ANOMALY": 303.5024, "EPHEMERIS_TYPE": 0, "CLASSIFICATION_TYPE": "U", "NORAD_CAT_ID": 66598, "ELEMENT_SET_NO": 999, "REV_AT_EPOCH": 425, "BSTAR": -0.0020956174, "MEAN_MOTION_DOT": -0.00121594, "MEAN_MOTION_DDOT": 0}, "tle": {"line1": "1 66598U 25270L   25346.83335648 -.00121594  00000+0 -20956-2 0  9997", "line2": "2 66598  42.9995 192.1445 0001406 266.1415 303.5024 15.50625861  4253"}}, "geometry": {"type": "Point", "coordinates": [174.63839372169335, -12.031468615131535]}}, {"type": "Feature", "properties": {"norad_id": 66599, "name": "STARLINK-35930", "group": "last-30-days", "lat": -10.740982020360962, "lon": 176.11075775771621, "alt_km": 416.1471906782872, "timestamp": "2025-12-13T13:34:33.864493+00:00", "meta": {"OBJECT_NAME": "STARLINK-35930", "OBJECT_ID": "2025-270M", "EPOCH": "2025-12-12T20:00:01.999872", "MEAN_MOTION": 15.50581495, "ECCENTRICITY": 2.269e-05, "INCLINATION": 42.9996, "RA_OF_ASC_NODE": 192.1408, "ARG_OF_PERICENTER": 322.8567, "MEAN_ANOMALY": 248.7222, "EPHEMERIS_TYPE": 0, "CLASSIFICATION_TYPE": "U", "NORAD_CAT_ID": 66599, "ELEMENT_SET_NO": 999, "REV_AT_EPOCH": 441, "BSTAR": -0.00089004481, "MEAN_MOTION_DOT": -0.0005221, "MEAN_MOTION_DDOT": 0}, "tle": {"line1": "1 66599U 25270M   25346.83335648 -.00052210  00000+0 -89004-3 0  9996", "line2": "2 66599  42.9996 192.1408 0000226 322.8567 248.7222 15.50581495  4413"}}, "geometry": {"type": "Point", "coordinates": [176.11075775771621, -10.740982020360962]}}, {"type": "Feature", "properties": {"norad_id": 66600, "name": "STARLINK-35980", "group": "last-30-days", "lat": -9.530549629660545, "lon": 177.4719713211437, "alt_km": 416.2419897403224, "timestamp": "2025-12-13T13:34:33.864503+00:00", "meta": {"OBJECT_NAME": "STARLINK-35980", "OBJECT_ID": "2025-270N", "EPOCH": "2025-12-12T20:00:01.999872", "MEAN_MOTION": 15.50751918, "ECCENTRICITY": 0.00025719, "INCLINATION": 42.9996, "RA_OF_ASC_NODE": 192.1359, "ARG_OF_PERICENTER": 268.7145, "MEAN_ANOMALY": 304.7041, "EPHEMERIS_TYPE": 0, "CLASSIFICATION_TYPE": "U", "NORAD_CAT_ID": 66600, "ELEMENT_SET_NO": 999, "REV_AT_EPOCH": 431, "BSTAR": -0.0053710252, "MEAN_MOTION_DOT": -0.00305399, "MEAN_MOTION_DDOT": 0}, "tle": {"line1": "1 66600U 25270N   25346.83335648 -.00305399  00000+0 -53710-2 0  9992", "line2": "2 66600  42.9996 192.1359 0002571 268.7145 304.7041 15.50751918  4316"}}, "geometry": {"type": "Point", "coordinates": [177.4719713211437, -9.530549629660545]}}, {"type": "Feature", "properties": {"norad_id": 66601, "name": "STARLINK-35978", "group": "last-30-days", "lat": -8.176064402208052, "lon": 178.97647913794546, "alt_km": 415.7395278658805, "timestamp": "2025-12-13T13:34:33.864513+00:00", "meta": {"OBJECT_NAME": "STARLINK-35978", "OBJECT_ID": "2025-270P", "EPOCH": "2025-12-12T20:00:01.999872", "MEAN_MOTION": 15.50603718, "ECCENTRICITY": 0.00013079, "INCLINATION": 42.9994, "RA_OF_ASC_NODE": 192.1304, "ARG_OF_PERICENTER": 277.2177, "MEAN_ANOMALY": 298.1849, "EPHEMERIS_TYPE": 0, "CLASSIFICATION_TYPE": "U", "NORAD_CAT_ID": 66601, "ELEMENT_SET_NO": 999, "REV_AT_EPOCH": 425, "BSTAR": -0.0015099776, "MEAN_MOTION_DOT": -0.00088012, "MEAN_MOTION_DDOT": 0}, "tle": {"line1": "1 66601U 25270P   25346.83335648 -.00088012  00000+0 -15100-2 0  9994", "line2": "2 66601  42.9994 192.1304 0001307 277.2177 298.1849 15.50603718  4250"}}, "geometry": {"type": "Point", "coordinates": [178.97647913794546, -8.176064402208052]}}, {"type": "Feature", "properties": {"norad_id": 66602, "name": "STARLINK-36050", "group": "last-30-days", "lat": -28.316314397867924, "lon": 152.5978030659763, "alt_km": 443.70048061744455, "timestamp": "2025-12-13T13:34:33.864522+00:00", "meta": {"OBJECT_NAME": "STARLINK-36050", "OBJECT_ID": "2025-270Q", "EPOCH": "2025-12-12T20:00:01.999872", "MEAN_MOTION": 15.44633139, "ECCENTRICITY": 0.00011849, "INCLINATION": 42.999, "RA_OF_ASC_NODE": 192.1598, "ARG_OF_PERICENTER": 259.3634, "MEAN_ANOMALY": 303.8776, "EPHEMERIS_TYPE": 0, "CLASSIFICATION_TYPE": "U", "NORAD_CAT_ID": 66602, "ELEMENT_SET_NO": 999, "REV_AT_EPOCH": 431, "BSTAR": -0.048346538, "MEAN_MOTION_DOT": -0.02049277, "MEAN_MOTION_DDOT": 0}, "tle": {"line1": "1 66602U 25270Q   25346.83335648 -.02049277  00000+0 -48347-1 0  9995", "line2": "2 66602  42.9990 192.1598 0001184 259.3634 303.8776 15.44633139  4317"}}, "geometry": {"type": "Point", "coordinates": [152.5978030659763, -28.316314397867924]}}, {"type": "Feature", "properties": {"norad_id": 66603, "name": "STARLINK-36048", "group": "last-30-days", "lat": -5.59140652996316, "lon": -178.194202053052, "alt_km": 415.75636178474906, "timestamp": "2025-12-13T13:34:33.864531+00:00", "meta": {"OBJECT_NAME": "STARLINK-36048", "OBJECT_ID": "2025-270R", "EPOCH": "2025-12-12T20:00:01.999872", "MEAN_MOTION": 15.50640702, "ECCENTRICITY": 0.00015351, "INCLINATION": 42.9996, "RA_OF_ASC_NODE": 192.1208, "ARG_OF_PERICENTER": 262.4474, "MEAN_ANOMALY": 316.7489, "EPHEMERIS_TYPE": 0, "CLASSIFICATION_TYPE": "U", "NORAD_CAT_ID": 66603, "ELEMENT_SET_NO": 999, "REV_AT_EPOCH": 431, "BSTAR": -0.0021329873, "MEAN_MOTION_DOT": -0.00123788, "MEAN_MOTION_DDOT": 0}, "tle": {"line1": "1 66603U 25270R   25346.83335648 -.00123788  00000+0 -21330-2 0  9998", "line2": "2 66603  42.9996 192.1208 0001535 262.4474 316.7489 15.50640702  4314"}}, "geometry": {"type": "Point", "coordinates": [-178.194202053052, -5.59140652996316]}}, {"type": "Feature", "properties": {"norad_id": 66604, "name": "STARLINK-35977", "group": "last-30-days", "lat": -4.30930735193781, "lon": -176.80624597386998, "alt_km": 415.6891985120583, "timestamp": "2025-12-13T13:34:33.864540+00:00", "meta": {"OBJECT_NAME": "STARLINK-35977", "OBJECT_ID": "2025-270S", "EPOCH": "2025-12-12T20:00:01.999872", "MEAN_MOTION": 15.50642408, "ECCENTRICITY": 0.00011848, "INCLINATION": 42.9996, "RA_OF_ASC_NODE": 192.1163, "ARG_OF_PERICENTER": 267.7463, "MEAN_ANOMALY": 313.3933, "EPHEMERIS_TYPE": 0, "CLASSIFICATION_TYPE": "U", "NORAD_CAT_ID": 66604, "ELEMENT_SET_NO": 999, "REV_AT_EPOCH": 441, "BSTAR": -0.0026167497, "MEAN_MOTION_DOT": -0.00151263, "MEAN_MOTION_DDOT": 0}, "tle": {"line1": "1 66604U 25270S   25346.83335648 -.00151263  00000+0 -26167-2 0  9991", "line2": "2 66604  42.9996 192.1163 0001184 267.7463 313.3933 15.50642408  4414"}}, "geometry": {"type": "Point", "coordinates": [-176.80624597386998, -4.30930735193781]}}, {"type": "Feature", "properties": {"norad_id": 66605, "name": "STARLINK-36052", "group": "last-30-days", "lat": -2.9851750572065483, "lon": -175.38083245971376, "alt_km": 415.12325021997276, "timestamp": "2025-12-13T13:34:33.864548+00:00", "meta": {"OBJECT_NAME": "STARLINK-36052", "OBJECT_ID": "2025-270T", "EPOCH": "2025-12-12T20:00:01.999872", "MEAN_MOTION": 15.50588053, "ECCENTRICITY": 0.00017684, "INCLINATION": 42.9995, "RA_OF_ASC_NODE": 192.1115, "ARG_OF_PERICENTER": 279.2373, "MEAN_ANOMALY": 303.8489, "EPHEMERIS_TYPE": 0, "CLASSIFICATION_TYPE": "U", "NORAD_CAT_ID": 66605, "ELEMENT_SET_NO": 999, "REV_AT_EPOCH": 441, "BSTAR": -0.0013968271, "MEAN_MOTION_DOT": -0.00081468, "MEAN_MOTION_DDOT": 0}, "tle": {"line1": "1 66605U 25270T   25346.83335648 -.00081468  00000+0 -13968-2 0  9996", "line2": "2 66605  42.9995 192.1115 0001768 279.2373 303.8489 15.50588053  4412"}}, "geometry": {"type": "Point", "coordinates": [-175.38083245971376, -2.9851750572065483]}}, {"type": "Feature", "properties": {"norad_id": 66606, "name": "STARLINK-36063", "group": "last-30-days", "lat": -0.4114768872962098, "lon": -172.6239687896282, "alt_km": 415.2983891712811, "timestamp": "2025-12-13T13:34:33.864557+00:00", "meta": {"OBJECT_NAME": "STARLINK-36063", "OBJECT_ID": "2025-270U", "EPOCH": "2025-12-12T20:00:01.999872", "MEAN_MOTION": 15.50682784, "ECCENTRICITY": 0.00014372, "INCLINATION": 42.9995, "RA_OF_ASC_NODE": 192.1018, "ARG_OF_PERICENTER": 274.1085, "MEAN_ANOMALY": 312.7641, "EPHEMERIS_TYPE": 0, "CLASSIFICATION_TYPE": "U", "NORAD_CAT_ID": 66606, "ELEMENT_SET_NO": 999, "REV_AT_EPOCH": 441, "BSTAR": -0.0036600229, "MEAN_MOTION_DOT": -0.00210173, "MEAN_MOTION_DDOT": 0}, "tle": {"line1": "1 66606U 25270U   25346.83335648 -.00210173  00000+0 -36600-2 0  9992", "line2": "2 66606  42.9995 192.1018 0001437 274.1085 312.7641 15.50682784  4417"}}, "geometry": {"type": "Point", "coordinates": [-172.6239687896282, -0.4114768872962098]}}, {"type": "Feature", "properties": {"norad_id": 66607, "name": "STARLINK-35993", "group": "last-30-days", "lat": -1.6739136081431936, "lon": -173.97461874462164, "alt_km": 415.1409915250215, "timestamp": "2025-12-13T13:34:33.864566+00:00", "meta": {"OBJECT_NAME": "STARLINK-35993", "OBJECT_ID": "2025-270V", "EPOCH": "2025-12-12T20:00:01.999872", "MEAN_MOTION": 15.50584544, "ECCENTRICITY": 0.00015811, "INCLINATION": 42.9994, "RA_OF_ASC_NODE": 192.1068, "ARG_OF_PERICENTER": 271.4209, "MEAN_ANOMALY": 313.5788, "EPHEMERIS_TYPE": 0, "CLASSIFICATION_TYPE": "U", "NORAD_CAT_ID": 66607, "ELEMENT_SET_NO": 999, "REV_AT_EPOCH": 431, "BSTAR": -0.0011994592, "MEAN_MOTION_DOT": -0.00070096, "MEAN_MOTION_DDOT": 0}, "tle": {"line1": "1 66607U 25270V   25346.83335648 -.00070096  00000+0 -11995-2 0  9991", "line2": "2 66607  42.9994 192.1068 0001581 271.4209 313.5788 15.50584544  4315"}}, "geometry": {"type": "Point", "coordinates": [-173.97461874462164, -1.6739136081431936]}}]}